name,username,password,email,phone,bio,startWorkingHours,endWorkingHours,streetAddress,postalCode,unitNumber,adminId, joinDate, deactivatedAt
Jean Valjean,twofoursixohone,Ye3Ur4Xb,24601@lesmiserables.com,88824601,A reformed convict seeking redemption through acts of kindness and sacrifice.,09:00,18:00,88 Corporation Road,649823,#01-01,1,2024-01-20,2024-10-22
Fantine,all4cosette,Ja9Sd9Tj,all4cosette@lesmiserables.com,88824602,"A mother who sacrifices everything for her daughter, despite the harshness of life.",08:00,17:00,61 Kampong Arang Road,438181,#01-01,2,2024-02-03,2024-09-10
Cosette,littlelark,Xf3Uc5Yu,littlelark@lesmiserables.com,88824603,An innocent young woman who finds love and a better life after years of hardship.,10:00,16:00,20 Orchard Road,238830,#01-01,3,2024-09-01,
Eponine,whymariuswhy,Cw1Ri6Yi,whymariuswhy@lesmiserables.com,88824604,"A street-smart girl hopelessly in love, living in the shadows with unrequited dreams.",11:00,19:00,1 Fullerton Road,049213,#01-01,1,2024-04-29,
Marius,onedaymore,Tw0Xb0Eu,onedaymore@lesmiserables.com,88824605,An idealistic young man caught between his love for Cosette and his revolutionary passion.,09:00,17:00,10 Bayfront Avenue,018956,#01-01,2,2024-01-29,
Reverend Myriel,breadandwine,Uo8Bi7Sw,breadandwine@lesmiserables.com,88824606,A kind-hearted bishop who changes lives with his compassion and unwavering faith.,07:00,15:00,30 Raffles Avenue,039803,#01-01,3,2024-04-20,
Gavroche,riplamarque,Aa0Nx5Zp,riplamarque@lesmiserables.com,88824607,A spirited street urchin with courage beyond his years and a fierce loyalty to his friends.,12:00,20:00,80 Mandai Lake Road,729826,#01-01,1,2024-11-03,
Enjolras,emptychairs,Bq7Dq8Jm,emptychairs@lesmiserables.com,88824608,A passionate revolutionary leader dedicated to the cause of freedom and justice.,08:00,18:00,18 Marina Gardens Drive,018953,#01-01,2,2024-05-15,2024-11-05
Grantaire,emptytables,Od5Xv5Av,emptytables@lesmiserables.com,88824609,A cynical follower of the revolution who hides his admiration for Enjolras beneath his doubts.,10:00,18:00,6 Raffles Boulevard,039594,#01-01,3,2024-11-14,
Monsieur Thenardier,kidneyofahorse,Kn5Id7Jo,kidneyozfahorse@lesmiserables.com,88824610,"A ruthless innkeeper and conman, always scheming to profit at others' expense.",09:00,21:00,8 Sentosa Gateway,098269,#01-01,1,2024-11-05,
Madame Thenardier,liverofacat,Lf5Cn4Ho,liverofacat@lesmiserables.com,88824611,"A hard-hearted woman who, along with her husband, exploits and mistreats others for gain.",09:00,21:00,1 Cluny Road,259569,#01-01,2,2024-08-24,2024-11-05
Courfeyrac,deadandgone,Xi0Tn2Fc,deadandgone@lesmiserables.com,88824612,"A loyal and warm-hearted friend, committed to the cause and the people he loves.",09:00,17:00,2 Orchard Turn,238801,#01-01,3,2024-10-04,
Champmathieu,notjeanvaljean,Kz8Jx7Fr,notjeanvaljean@lesmiserables.com,88824613,"An unfortunate man wrongfully accused of being Jean Valjean, caught in a tragic case of mistaken identity.",08:00,16:00,1 Beach Road,189673,#01-01,1,2024-07-03,
Bamatabois,rattusrattus,Et1Kl1Sa,rattusrattus@lesmiserables.com,88824614,"A shallow aristocrat who abuses his power and wealth, with little regard for others.",10:00,18:00,1 Esplanade Drive,038981,#01-01,2,2024-04-25,
Combeferre,scholarofliberty,Hs9Gf7Ls,scholarofliberty@lesmiserables.com,88824615,"A compassionate intellectual dedicated to the revolutionary cause.",08:00,16:00,88 Corporation Road,649823,#01-01,1,2024-02-11,
Jehan,poetofsorrow,Yz4Lp2Wm,poetofsorrow@lesmiserables.com,88824616,"A romantic and sensitive poet, devoted to ideals of love and freedom.",09:00,17:00,61 Kampong Arang Road,438181,#01-01,2,2024-03-22,
Feuilly,painterofflags,Ah2Zw6Rd,painterofflags@lesmiserables.com,88824617,"A self-taught worker and idealist, loyal to the cause of the oppressed.",10:00,18:00,20 Orchard Road,238830,#01-01,3,2024-04-30,
Montparnasse,shadowthief,Zn8Wq3Jb,shadowthief@lesmiserables.com,88824618,"A dashing but dangerous young man involved in criminal schemes.",11:00,19:00,1 Fullerton Road,049213,#01-01,1,2024-05-21,
Joly,medicineislife,Bh7Qk6Al,medicineislife@lesmiserables.com,88824619,"A hypochondriac with a big heart, always worrying about his health but brave at heart.",08:00,17:00,10 Bayfront Avenue,018956,#01-01,2,2024-06-10,
Bossuet,unluckyman,Xt6Rv4Cv,unluckyman@lesmiserables.com,88824620,"A cheerful, unlucky friend who faces adversity with humor and resilience.",09:00,17:00,30 Raffles Avenue,039803,#01-01,3,2024-07-25,
Mabeuf,lovesflowers,Ca3Fq8Pt,lovesflowers@lesmiserables.com,88824621,"An elderly man passionate about books and flowers, kind-hearted and gentle.",07:00,15:00,80 Mandai Lake Road,729826,#01-01,1,2024-08-08,
Claquesous,maskedmystery,Di6Nk2Op,maskedmystery@lesmiserables.com,88824622,"A sinister figure always hidden behind a mask, feared by many.",09:00,18:00,18 Marina Gardens Drive,018953,#01-01,2,2024-09-15,
Brujon,muscleinthegroup,Fo4Lb3Nx,muscleinthegroup@lesmiserables.com,88824623,"A brute among criminals, known for his strength and cold-heartedness.",10:00,19:00,6 Raffles Boulevard,039594,#01-01,3,2024-10-09,
Babet,thinnestthief,Mi5Jf8Wu,thinnestthief@lesmiserables.com,88824624,"A wiry and cunning criminal, known for his sly and slippery ways.",09:00,18:00,8 Sentosa Gateway,098269,#01-01,1,2024-11-03,
Patron-Minette,dreadgang,Zr9Ty7Uq,dreadgang@lesmiserables.com,88824625,"A gang leader with a terrifying reputation, ruling the underworld with fear.",09:00,21:00,1 Cluny Road,259569,#01-01,2,2024-01-15,
Mother Innocente,sisterofmercy,Ho6Dl2Qu,sisterofmercy@lesmiserables.com,88824626,"A nun known for her kindness and unwavering devotion to helping the needy.",08:00,16:00,1 Beach Road,189673,#01-01,1,2024-03-01,
Fauchelevent,savedbyvaljean,Jo2Tk5Yl,savedbyvaljean@lesmiserables.com,88824627,"A man who owes his life to Valjean, grateful and ever-loyal.",07:00,15:00,1 Esplanade Drive,038981,#01-01,2,2024-06-18,
Mme Magloire,faithfulservant,Td8Sj7Hw,faithfulservant@lesmiserables.com,88824628,"A devoted servant, always by the bishop's side, helping with compassion.",08:00,16:00,10 Bayfront Avenue,018956,#01-01,3,2024-04-14,
Azelma,shadowofeponine,Pl1Ff6Xn,shadowofeponine@lesmiserables.com,88824629,"A quiet girl often overlooked, standing in the shadow of her sister.",10:00,17:00,88 Corporation Road,649823,#01-01,1,2024-07-07,2024-11-02